STARLINK-34481          
1 65104U 25167AC  26068.30343686  .00046911  00000+0  15861-2 0  9995
2 65104  53.1604  28.2391 0001182  67.6360 292.4766 15.30197964 33425
KUIPER-00222            
1 67782U 26030U   26068.67636257  .00055223  00000+0  17317-2 0  9992
2 67782  51.8817 219.7147 0012800  40.1845 320.0084 15.32445377  5087
